[{"OBJECT_NAME":"STARLINK-11287 [DTC]","OBJECT_ID":"2024-158J","EPOCH":"2026-03-09T19:43:31.475712","MEAN_MOTION":15.69705376,"ECCENTRICITY":8.411e-5,"INCLINATION":53.1597,"RA_OF_ASC_NODE":280.7399,"ARG_OF_PERICENTER":60.1114,"MEAN_ANOMALY":299.9987,"EPHEMERIS_TYPE":0,"CLASSIFICATION_TYPE":"U","NORAD_CAT_ID":60998,"ELEMENT_SET_NO":999,"REV_AT_EPOCH":8760,"BSTAR":-1.3450658e-5,"MEAN_MOTION_DOT":-2.217e-5,"MEAN_MOTION_DDOT":0},{"OBJECT_NAME":"CZ-2C R\/B","OBJECT_ID":"2021-039E","EPOCH":"2026-03-09T09:27:45.017856","MEAN_MOTION":15.64132714,"ECCENTRICITY":0.00310654,"INCLINATION":34.9801,"RA_OF_ASC_NODE":125.6229,"ARG_OF_PERICENTER":235.3635,"MEAN_ANOMALY":124.4161,"EPHEMERIS_TYPE":0,"CLASSIFICATION_TYPE":"U","NORAD_CAT_ID":48427,"ELEMENT_SET_NO":999,"REV_AT_EPOCH":26989,"BSTAR":0.00058987326,"MEAN_MOTION_DOT":0.00059804,"MEAN_MOTION_DDOT":0}]
